{"type": "FeatureCollection", "features": [{"type": "Feature", "properties": {"norad_id": 49537, "name": "COSMOS 1408 DEB", "group": "cosmos-1408-debris", "lat": 12.932261582912684, "lon": 107.41856561235373, "alt_km": 144.2688272378973, "timestamp": "2025-12-02T15:49:07.459926+00:00", "meta": {"OBJECT_NAME": "COSMOS 1408 DEB", "OBJECT_ID": "1982-092AA", "EPOCH": "2025-12-01T10:29:21.651360", "MEAN_MOTION": 16.33498888, "ECCENTRICITY": 0.00127731, "INCLINATION": 82.5092, "RA_OF_ASC_NODE": 107.1368, "ARG_OF_PERICENTER": 299.8571, "MEAN_ANOMALY": 60.1455, "EPHEMERIS_TYPE": 0, "CLASSIFICATION_TYPE": "U", "NORAD_CAT_ID": 49537, "ELEMENT_SET_NO": 999, "REV_AT_EPOCH": 22403, "BSTAR": 0.00094222941, "MEAN_MOTION_DOT": 0.05878558, "MEAN_MOTION_DDOT": -1.252052e-06}, "tle": {"line1": "1 49537U 82092AA  25335.43705615  .05878558 -12521-5  94223-3 0  9994", "line2": "2 49537  82.5092 107.1368 0012773 299.8571  60.1455 16.33498888224033"}}, "geometry": {"type": "Point", "coordinates": [107.41856561235373, 12.932261582912684]}}, {"type": "Feature", "properties": {"norad_id": 50032, "name": "COSMOS 1408 DEB", "group": "cosmos-1408-debris", "lat": -52.163891641350695, "lon": -101.48186358871101, "alt_km": 427.2311903596019, "timestamp": "2025-12-02T15:49:07.459947+00:00", "meta": {"OBJECT_NAME": "COSMOS 1408 DEB", "OBJECT_ID": "1982-092RU", "EPOCH": "2025-12-02T05:29:26.338848", "MEAN_MOTION": 15.45525424, "ECCENTRICITY": 0.00146432, "INCLINATION": 82.5651, "RA_OF_ASC_NODE": 69.2795, "ARG_OF_PERICENTER": 249.8318, "MEAN_ANOMALY": 110.1356, "EPHEMERIS_TYPE": 0, "CLASSIFICATION_TYPE": "U", "NORAD_CAT_ID": 50032, "ELEMENT_SET_NO": 999, "REV_AT_EPOCH": 22441, "BSTAR": 0.00014269317, "MEAN_MOTION_DOT": 6.913e-05, "MEAN_MOTION_DDOT": 0}, "tle": {"line1": "1 50032U 82092RU  25336.22877707  .00006913  00000+0  14269-3 0  9993", "line2": "2 50032  82.5651  69.2795 0014643 249.8318 110.1356 15.45525424224417"}}, "geometry": {"type": "Point", "coordinates": [-101.48186358871101, -52.163891641350695]}}, {"type": "Feature", "properties": {"norad_id": 50058, "name": "COSMOS 1408 DEB", "group": "cosmos-1408-debris", "lat": 38.44422576858856, "lon": -106.02622998022748, "alt_km": 364.83205752789036, "timestamp": "2025-12-02T15:49:07.459960+00:00", "meta": {"OBJECT_NAME": "COSMOS 1408 DEB", "OBJECT_ID": "1982-092SW", "EPOCH": "2025-12-02T05:59:58.786944", "MEAN_MOTION": 15.63156058, "ECCENTRICITY": 0.00161817, "INCLINATION": 82.6146, "RA_OF_ASC_NODE": 80.3116, "ARG_OF_PERICENTER": 136.2342, "MEAN_ANOMALY": 224.0203, "EPHEMERIS_TYPE": 0, "CLASSIFICATION_TYPE": "U", "NORAD_CAT_ID": 50058, "ELEMENT_SET_NO": 999, "REV_AT_EPOCH": 22640, "BSTAR": 0.00041340036, "MEAN_MOTION_DOT": 0.00038084, "MEAN_MOTION_DDOT": 0}, "tle": {"line1": "1 50058U 82092SW  25336.24998596  .00038084  00000+0  41340-3 0  9997", "line2": "2 50058  82.6146  80.3116 0016181 136.2342 224.0203 15.63156058226401"}}, "geometry": {"type": "Point", "coordinates": [-106.02622998022748, 38.44422576858856]}}, {"type": "Feature", "properties": {"norad_id": 50404, "name": "COSMOS 1408 DEB", "group": "cosmos-1408-debris", "lat": -61.28563907805027, "lon": -149.1402536915956, "alt_km": 482.85185148377514, "timestamp": "2025-12-02T15:49:07.459973+00:00", "meta": {"OBJECT_NAME": "COSMOS 1408 DEB", "OBJECT_ID": "1982-092ADS", "EPOCH": "2025-12-02T03:23:04.900416", "MEAN_MOTION": 15.11568017, "ECCENTRICITY": 0.01770451, "INCLINATION": 82.207, "RA_OF_ASC_NODE": 225.8658, "ARG_OF_PERICENTER": 235.6536, "MEAN_ANOMALY": 122.7837, "EPHEMERIS_TYPE": 0, "CLASSIFICATION_TYPE": "U", "NORAD_CAT_ID": 50404, "ELEMENT_SET_NO": 999, "REV_AT_EPOCH": 21033, "BSTAR": 0.0031085451, "MEAN_MOTION_DOT": 0.00077873, "MEAN_MOTION_DDOT": 0}, "tle": {"line1": "1 50404U 82092ADS 25336.14102894  .00077873  00000+0  31085-2 0  9992", "line2": "2 50404  82.2070 225.8658 0177045 235.6536 122.7837 15.11568017210338"}}, "geometry": {"type": "Point", "coordinates": [-149.1402536915956, -61.28563907805027]}}, {"type": "Feature", "properties": {"norad_id": 50621, "name": "COSMOS 1408 DEB", "group": "cosmos-1408-debris", "lat": 63.74654082926081, "lon": 100.01045633204784, "alt_km": 404.61348005543005, "timestamp": "2025-12-02T15:49:07.459984+00:00", "meta": {"OBJECT_NAME": "COSMOS 1408 DEB", "OBJECT_ID": "1982-092ALR", "EPOCH": "2025-12-01T08:40:02.733600", "MEAN_MOTION": 15.55763582, "ECCENTRICITY": 0.00289111, "INCLINATION": 82.5699, "RA_OF_ASC_NODE": 86.0169, "ARG_OF_PERICENTER": 194.2516, "MEAN_ANOMALY": 165.7927, "EPHEMERIS_TYPE": 0, "CLASSIFICATION_TYPE": "U", "NORAD_CAT_ID": 50621, "ELEMENT_SET_NO": 999, "REV_AT_EPOCH": 22073, "BSTAR": 0.00047506619, "MEAN_MOTION_DOT": 0.00033485, "MEAN_MOTION_DDOT": 0}, "tle": {"line1": "1 50621U 82092ALR 25335.36114275  .00033485  00000+0  47507-3 0  9990", "line2": "2 50621  82.5699  86.0169 0028911 194.2516 165.7927 15.55763582220732"}}, "geometry": {"type": "Point", "coordinates": [100.01045633204784, 63.74654082926081]}}]}